NAVSTAR 77 (USA 289)    
1 43873U 18109A   23236.61635453 -.00000005  00000+0  00000+0 0  9997
2 43873  55.1896 132.7898 0025434 191.5684 294.0948  2.00568386 34462
